{
  "norad_id": 59871,
  "name": "STARLINK-31937",
  "history": [
    {
      "epoch": "2026-03-28T21:27:55.401408Z",
      "apogee_km": 483.7413844095681,
      "perigee_km": 482.35405285946035,
      "latitude_deg": -5.37785138794257e-06,
      "longitude_deg": 14.293366927445348,
      "height_km": 482.76906138997396,
      "semi_major_axis_km": 6861.184718634514,
      "eccentricity": 0.0001011,
      "inclination_deg": 42.9989,
      "raan_deg": 162.5825,
      "arg_perigee_deg": 274.5402,
      "mean_anomaly_deg": 85.5334,
      "mean_motion_rev_day": 15.2758046
    }
  ]
}